SES-1                   
1 36516U 10016A   26156.61452912 -.00000102  00000+0  00000+0 0  9991
2 36516   0.0203 308.5982 0002964 129.3282 296.3553  1.00271519 58913
ASTRA 3B                
1 36581U 10021A   26156.71045198  .00000150  00000+0  00000+0 0  9996
2 36581   1.4411  83.6905 0004439 349.4843 100.2059  1.00273064 58757
COMSATBW-2              
1 36582U 10021B   26156.70845862  .00000101  00000+0  00000+0 0  9998
2 36582   0.0155  14.2384 0002807  72.7902  75.3750  1.00269347 58847
BEIDOU-2 G3             
1 36590U 10024A   26156.77765959 -.00000124  00000+0  00000+0 0  9991
2 36590   4.4886  61.5638 0008566 350.0575 202.2340  1.00273419 58658
BADR-5                  
1 36592U 10025A   26156.56925079  .00000166  00000+0  00000+0 0  9997
2 36592   0.0901 103.6698 0002929  77.0228 308.7428  1.00277067 53109
COMS 1                  
1 36744U 10032A   26152.73864208 -.00000334  00000+0  00000+0 0  9993
2 36744   4.7700  75.5552 0001064 351.7830 216.9341  1.00271905 50939
ARABSAT-5A              
1 36745U 10032B   26156.56925079  .00000166  00000+0  00000+0 0  9995
2 36745   0.0672  48.1096 0005584  51.4666  29.8706  1.00274438 58532
ECHOSTAR 15             
1 36792U 10034A   26156.61097578  .00000012  00000+0  00000+0 0  9999
2 36792   0.0103 334.9405 0001972  96.8390 283.4020  1.00271551 58201
BEIDOU-2 IGSO-1         
1 36828U 10036A   26156.64779406 -.00000059  00000+0  00000+0 0  9993
2 36828  54.3006 163.0636 0059064 224.9844 206.8787  1.00276021 57985
NILESAT 201             
1 36830U 10037A   26156.70438528 -.00000045  00000+0  00000+0 0  9996
2 36830   0.0103 286.8136 0004444 176.8614  37.0442  1.00272147 58264
RASCOM-QAF 1R           
1 36831U 10037B   26156.70637861  .00000000  00000+0  00000+0 0  9998
2 36831   0.0274  50.5278 0006635  27.5224  73.2657  1.00273117 58190
AEHF-1 (USA 214)        
1 36868U 10039A   26156.74367588  .00000159  00000+0  00000+0 0  9995
2 36868   8.1902  68.1955 0004215   3.4378 120.2037  1.00269770 53548
XM-5                    
1 37185U 10053A   26156.48516847 -.00000011  00000+0  00000+0 0  9997
2 37185   0.0629 273.5997 0002892 277.7709 122.0178  1.00271700 57365
BSAT-3B                 
1 37207U 10056B   26156.68140928 -.00000338  00000+0  00000+0 0  9992
2 37207   0.0555 240.3600 0001183 299.0425  69.8567  1.00274281 51984
BEIDOU-2 G4             
1 37210U 10057A   26156.66618806 -.00000100  00000+0  00000+0 0  9997
2 37210   3.6183  69.0151 0004796 203.1726  21.7505  1.00272341 57175
SKYTERRA 1              
1 37218U 10061A   26156.61444247 -.00000107  00000+0  00000+0 0  9998
2 37218   5.1001  50.8631 0002939  18.1621 304.8996  1.00271237 57076
HYLAS 1                 
1 37237U 10065A   26156.74307296  .00000101  00000+0  00000+0 0  9992
2 37237   5.6142  73.1582 0001218 320.4426 141.8763  1.00271871  6778
INTELSAT 17 (IS-17)     
1 37238U 10065B   26156.74115354  .00000011  00000+0  00000+0 0  9995
2 37238   0.0060 297.2794 0002411 142.4339 147.2614  1.00272015 53130
BEIDOU-2 IGSO-2         
1 37256U 10068A   26153.71703494 -.00000206  00000+0  00000+0 0  9997
2 37256  47.5760 272.0122 0055435 212.8539 131.7633  1.00288733 56649
EUTELSAT KA-SAT 9A      
1 37258U 10069A   26156.70759197  .00000074  00000+0  00000+0 0  9995
2 37258   0.0610  11.3509 0004131 118.6490  27.8598  1.00273176 43891
HISPASAT 30W-5          
1 37264U 10070A   26156.69987859 -.00000203  00000+0  00000+0 0  9995
2 37264   0.0589 108.8097 0005225 348.1477  19.1494  1.00271298 53070
KOREASAT 6              
1 37265U 10070B   26156.66618806 -.00000099  00000+0  00000+0 0  9999
2 37265   0.0208  59.8586 0002389  20.9287 213.0288  1.00272054 56653
BEIDOU-2 IGSO-3         
1 37384U 11013A   26155.63444529 -.00000179  00000+0  00000+0 0  9993
2 37384  62.3902  40.2715 0034446 185.4993   3.7397  1.00271497 55536
INTELSAT 28 (IS-28)     
1 37392U 11016A   26156.69953191 -.00000212  00000+0  00000+0 0  9990
2 37392   1.7759  82.7642 0004023 352.0351  39.4779  1.00269765 53173
YAHSAT 1A               
1 37393U 11016B   26156.21717041  .00000000  00000+0  00000+0 0  9995
2 37393   0.0153 335.7562 0003208 103.7141 304.8600  1.00269390 42284
SBIRS GEO-1 (USA 230)   
1 37481U 11019A   26156.74050815  .00000111  00000+0  00000+0 0  9996
2 37481   4.5120  53.1320 0002144  11.4610 147.9533  1.00272375 55284
TELSTAR 14R             
1 37602U 11021A   26156.55071971 -.00000267  00000+0  00000+0 0  9992
2 37602   0.0162   7.4930 0002596  58.6521 323.1021  1.00271964 55711
GSAT-8                  
1 37605U 11022A   26156.50285933  .00000097  00000+0  00000+0 0  9996
2 37605   2.1004  81.9664 0002179 218.3743 189.7064  1.00272335 53108
ST-2                    
1 37606U 11022B   26156.73794926 -.00000199  00000+0  00000+0 0  9993
2 37606   0.0148  20.2248 0001911  68.2150 159.4160  1.00271775 55162
ZHONGXING-10            
1 37677U 11026A   26156.72274132 -.00000176  00000+0  00000+0 0  9991
2 37677   1.0170  84.3342 0003708 354.9121 160.6370  1.00271659 54887
SES-3                   
1 37748U 11035A   26156.67987167 -.00000089  00000+0  00000+0 0  9996
2 37748   1.2964  83.2140 0002836 346.5528 326.0967  1.00271412 54474
KAZSAT-2                
1 37749U 11035B   26156.57670682 -.00000185  00000+0  00000+0 0  9994
2 37749   0.0368 247.9311 0001214 248.2593  51.9541  1.00270693 53288
