OBJECT_NAME,OBJECT_ID,EPOCH,MEAN_MOTION,ECCENTRICITY,INCLINATION,RA_OF_ASC_NODE,ARG_OF_PERICENTER,MEAN_ANOMALY,EPHEMERIS_TYPE,CLASSIFICATION_TYPE,NORAD_CAT_ID,ELEMENT_SET_NO,REV_AT_EPOCH,BSTAR,MEAN_MOTION_DOT,MEAN_MOTION_DDOT
SES-1,2010-016A,2026-06-05T14:44:55.315968,1.00271519,.0002964,0.0203,308.5982,129.3282,296.3553,0,U,36516,999,5891,0,-.102E-5,0
ASTRA 3B,2010-021A,2026-06-05T17:03:03.051072,1.00273064,.0004439,1.4411,83.6905,349.4843,100.2059,0,U,36581,999,5875,0,.15E-5,0
COMSATBW-2,2010-021B,2026-06-05T17:00:10.824768,1.00269347,.0002807,0.0155,14.2384,72.7902,75.3750,0,U,36582,999,5884,0,.101E-5,0
BEIDOU-2 G3,2010-024A,2026-06-05T18:39:49.788576,1.00273419,.0008566,4.4886,61.5638,350.0575,202.2340,0,U,36590,999,5865,0,-.124E-5,0
BADR-5,2010-025A,2026-06-05T13:39:43.268256,1.00277067,.0002929,0.0901,103.6698,77.0228,308.7428,0,U,36592,999,5310,0,.166E-5,0
COMS 1,2010-032A,2026-06-01T17:43:38.675712,1.00271905,.00010648,4.7700,75.5552,351.7830,216.9341,0,U,36744,999,5093,0,-.334E-5,0
ARABSAT-5A,2010-032B,2026-06-05T13:39:43.268256,1.00274438,.0005584,0.0672,48.1096,51.4666,29.8706,0,U,36745,999,5853,0,.166E-5,0
ECHOSTAR 15,2010-034A,2026-06-05T14:39:48.307392,1.00271551,.0001972,0.0103,334.9405,96.8390,283.4020,0,U,36792,999,5820,0,.12E-6,0
BEIDOU-2 IGSO-1,2010-036A,2026-06-05T15:32:49.406784,1.00276021,.0059064,54.3006,163.0636,224.9844,206.8787,0,U,36828,999,5798,0,-.59E-6,0
NILESAT 201,2010-037A,2026-06-05T16:54:18.888192,1.00272147,.0004444,0.0103,286.8136,176.8614,37.0442,0,U,36830,999,5826,0,-.45E-6,0
RASCOM-QAF 1R,2010-037B,2026-06-05T16:57:11.111904,1.00273117,.0006635,0.0274,50.5278,27.5224,73.2657,0,U,36831,999,5819,0,0,0
AEHF-1 (USA 214),2010-039A,2026-06-05T17:50:53.596032,1.00269770,.0004215,8.1902,68.1955,3.4378,120.2037,0,U,36868,999,5354,0,.159E-5,0
XM-5,2010-053A,2026-06-05T11:38:38.555808,1.00271700,.0002892,0.0629,273.5997,277.7709,122.0178,0,U,37185,999,5736,0,-.11E-6,0
BSAT-3B,2010-056B,2026-06-05T16:21:13.761792,1.00274281,.0001183,0.0555,240.3600,299.0425,69.8567,0,U,37207,999,5198,0,-.338E-5,0
BEIDOU-2 G4,2010-057A,2026-06-05T15:59:18.648384,1.00272341,.0004796,3.6183,69.0151,203.1726,21.7505,0,U,37210,999,5717,0,-.1E-5,0
SKYTERRA 1,2010-061A,2026-06-05T14:44:47.829408,1.00271237,.0002939,5.1001,50.8631,18.1621,304.8996,0,U,37218,999,5707,0,-.107E-5,0
HYLAS 1,2010-065A,2026-06-05T17:50:01.503744,1.00271871,.0001218,5.6142,73.1582,320.4426,141.8763,0,U,37237,999,677,0,.101E-5,0
INTELSAT 17 (IS-17),2010-065B,2026-06-05T17:47:15.665856,1.00272015,.0002411,0.0060,297.2794,142.4339,147.2614,0,U,37238,999,5313,0,.11E-6,0
BEIDOU-2 IGSO-2,2010-068A,2026-06-02T17:12:31.818816,1.00288733,.0055435,47.5760,272.0122,212.8539,131.7633,0,U,37256,999,5664,0,-.206E-5,0
EUTELSAT KA-SAT 9A,2010-069A,2026-06-05T16:58:55.946208,1.00273176,.0004131,0.0610,11.3509,118.6490,27.8598,0,U,37258,999,4389,0,.74E-6,0
HISPASAT 30W-5,2010-070A,2026-06-05T16:47:49.510176,1.00271298,.0005225,0.0589,108.8097,348.1477,19.1494,0,U,37264,999,5307,0,-.203E-5,0
KOREASAT 6,2010-070B,2026-06-05T15:59:18.648384,1.00272054,.0002389,0.0208,59.8586,20.9287,213.0288,0,U,37265,999,5665,0,-.99E-6,0
BEIDOU-2 IGSO-3,2011-013A,2026-06-04T15:13:36.073056,1.00271497,.00344466,62.3902,40.2715,185.4993,3.7397,0,U,37384,999,5553,0,-.179E-5,0
INTELSAT 28 (IS-28),2011-016A,2026-06-05T16:47:19.557024,1.00269765,.0004023,1.7759,82.7642,352.0351,39.4779,0,U,37392,999,5317,0,-.212E-5,0
YAHSAT 1A,2011-016B,2026-06-05T05:12:43.523424,1.00269390,.0003208,0.0153,335.7562,103.7141,304.8600,0,U,37393,999,4228,0,0,0
SBIRS GEO-1 (USA 230),2011-019A,2026-06-05T17:46:19.904160,1.00272375,.0002144,4.5120,53.1320,11.4610,147.9533,0,U,37481,999,5528,0,.111E-5,0
TELSTAR 14R,2011-021A,2026-06-05T13:13:02.182944,1.00271964,.0002596,0.0162,7.4930,58.6521,323.1021,0,U,37602,999,5571,0,-.267E-5,0
GSAT-8,2011-022A,2026-06-05T12:04:07.046112,1.00272335,.0002179,2.1004,81.9664,218.3743,189.7064,0,U,37605,999,5310,0,.97E-6,0
ST-2,2011-022B,2026-06-05T17:42:38.816064,1.00271775,.0001911,0.0148,20.2248,68.2150,159.4160,0,U,37606,999,5516,0,-.199E-5,0
ZHONGXING-10,2011-026A,2026-06-05T17:20:44.850048,1.00271659,.0003708,1.0170,84.3342,354.9121,160.6370,0,U,37677,999,5488,0,-.176E-5,0
SES-3,2011-035A,2026-06-05T16:19:00.912288,1.00271412,.0002836,1.2964,83.2140,346.5528,326.0967,0,U,37748,999,5447,0,-.89E-6,0
KAZSAT-2,2011-035B,2026-06-05T13:50:27.469248,1.00270693,.0001214,0.0368,247.9311,248.2593,51.9541,0,U,37749,999,5328,0,-.185E-5,0
